NORAD_CAT_ID,OBJECT_NAME,OBJECT_TYPE,EPOCH,MEAN_MOTION,ECCENTRICITY,INCLINATION,RA_OF_ASC_NODE,ARG_OF_PERICENTER,MEAN_ANOMALY,BSTAR,MEAN_MOTION_DOT,MEAN_MOTION_DDOT,TLE_LINE0,TLE_LINE1,TLE_LINE2,SEMIMAJOR_AXIS,PERIOD,APOGEE,PERIGEE,DECAYED
50829.0,STARLINK-3294,PAYLOAD,2023-04-12 11:21:29,15.08840193,0.0001181,53.2196,257.5928,92.9623,267.1504,7.7747e-05,9.5e-06,0.0,0 STARLINK-3294,1 50829U 22001AC  23102.47325773  .00000950  00000-0  77747-4 0  9995,2 50829  53.2196 257.5928 0001181  92.9623 267.1504 15.08840193 70047,6917.88,95.438,540.562,538.928,0.0
50829.0,STARLINK-3294,PAYLOAD,2023-04-13 09:36:53,15.08842087,0.0001582,53.2195,253.4314,90.047,270.0704,0.00020693,3.007e-05,0.0,0 STARLINK-3294,1 50829U 22001AC  23103.40061853  .00003007  00000-0  20693-3 0  9998,2 50829  53.2195 253.4314 0001582  90.0470 270.0704 15.08842087 70188,6917.874,95.437,540.833,538.645,0.0
50829.0,STARLINK-3294,PAYLOAD,2023-04-13 15:58:25,15.08843051,0.0001552,53.2198,252.2417,89.4051,270.7119,0.00019803,2.865e-05,0.0,0 STARLINK-3294,1 50829U 22001AC  23103.66557837  .00002865  00000-0  19803-3 0  9990,2 50829  53.2198 252.2417 0001552  89.4051 270.7119 15.08843051 71490,6917.871,95.437,540.81,538.662,0.0
50829.0,STARLINK-3294,PAYLOAD,2023-04-14 09:27:40,15.08841939,0.0002445,53.2102,248.9663,83.4658,276.6612,-5.2582e-05,-1.125e-05,0.0,0 STARLINK-3294,1 50829U 22001AC  23104.39422054 -.00001125  00000-0 -52582-4 0  9995,2 50829  53.2102 248.9663 0002445  83.4658 276.6612 15.08841939 70337,6917.874,95.437,541.431,538.048,0.0
50829.0,STARLINK-3294,PAYLOAD,2023-04-15 12:29:14,15.08841985,0.0001437,53.2165,243.9148,68.4731,291.6414,0.00019648,2.841e-05,0.0,0 STARLINK-3294,1 50829U 22001AC  23105.52031228  .00002841  00000-0  19648-3 0  9999,2 50829  53.2165 243.9148 0001437  68.4731 291.6414 15.08841985 70501,6917.874,95.437,540.733,538.745,0.0
50829.0,STARLINK-3294,PAYLOAD,2023-04-15 20:26:09,15.08863655,0.0001353,53.2158,242.4229,94.111,266.0037,0.00071047,0.00011045,0.0,0 STARLINK-3294,1 50829U 22001AC  23105.85150120  .00011045  00000-0  71047-3 0  9995,2 50829  53.2158 242.4229 0001353  94.1110 266.0037 15.08863655 71822,6917.808,95.436,540.609,538.737,0.0
50829.0,STARLINK-3294,PAYLOAD,2023-04-16 13:55:24,15.08848852,0.0002,53.2148,239.1561,80.5118,279.61,0.00051249,7.88e-05,0.0,0 STARLINK-3294,1 50829U 22001AC  23106.58015034  .00007880  00000-0  51249-3 0  9994,2 50829  53.2148 239.1561 0002000  80.5118 279.6100 15.08848852 71935,6917.853,95.437,541.102,538.335,0.0
50829.0,STARLINK-3294,PAYLOAD,2023-04-16 18:41:33,15.08864152,0.0001764,53.2145,238.2597,103.0546,257.0643,0.00054399,8.386e-05,0.0,0 STARLINK-3294,1 50829U 22001AC  23106.77886031  .00008386  00000-0  54399-3 0  9999,2 50829  53.2145 238.2597 0001764 103.0546 257.0643 15.08864152 70698,6917.807,95.436,540.892,538.451,0.0
50829.0,STARLINK-3294,PAYLOAD,2023-04-17 12:10:48,15.08845362,0.0001268,53.2157,234.9883,105.9322,254.181,0.00061511,9.517e-05,0.0,0 STARLINK-3294,1 50829U 22001AC  23107.50750222  .00009517  00000-0  61511-3 0  9994,2 50829  53.2157 234.9883 0001268 105.9322 254.1810 15.08845362 72074,6917.864,95.437,540.606,538.852,0.0
50829.0,STARLINK-3294,PAYLOAD,2023-04-17 13:46:11,15.0885121,0.0001356,53.216,234.6916,105.6051,254.5091,0.0010581,0.00016597,0.0,0 STARLINK-3294,1 50829U 22001AC  23107.57374194  .00016597  00000-0  10581-2 0  9997,2 50829  53.2160 234.6916 0001356 105.6051 254.5091 15.08851210 70810,6917.846,95.437,540.649,538.773,0.0
50829.0,STARLINK-3294,PAYLOAD,2023-04-17 15:21:34,15.08850893,0.0001084,53.2163,234.3948,100.5318,259.5797,0.0015086,0.0002381,0.0,0 STARLINK-3294,1 50829U 22001AC  23107.63998190  .00023810  00000-0  15086-2 0  9993,2 50829  53.2163 234.3948 0001084 100.5318 259.5797 15.08850893 70828,6917.847,95.437,540.462,538.962,0.0
50829.0,STARLINK-3294,PAYLOAD,2023-04-18 08:50:49,15.08849289,0.0001131,53.2161,231.1237,113.0653,247.0458,0.0012955,0.00020395,0.0,0 STARLINK-3294,1 50829U 22001AC  23108.36862473  .00020395  00000-0  12955-2 0  9995,2 50829  53.2161 231.1237 0001131 113.0653 247.0458 15.08849289 70931,6917.852,95.437,540.499,538.935,0.0
50829.0,STARLINK-3294,PAYLOAD,2023-04-18 13:36:58,15.08845104,0.0001389,53.2159,230.2315,116.4316,243.6819,0.0007371,0.00011464,0.0,0 STARLINK-3294,1 50829U 22001AC  23108.56734393  .00011464  00000-0  73710-3 0  9990,2 50829  53.2159 230.2315 0001389 116.4316 243.6819 15.08845104 72233,6917.865,95.437,540.691,538.769,0.0
50829.0,STARLINK-3294,PAYLOAD,2023-04-18 15:12:21,15.08844866,0.000139,53.2161,229.934,111.9837,248.1302,0.00088867,0.00013885,0.0,0 STARLINK-3294,1 50829U 22001AC  23108.63358448  .00013885  00000-0  88867-3 0  9999,2 50829  53.2161 229.9340 0001390 111.9837 248.1302 15.08844866 70979,6917.866,95.437,540.692,538.769,0.0
50829.0,STARLINK-3294,PAYLOAD,2023-04-19 08:41:36,15.088409,0.0001343,53.2197,226.6667,105.1301,254.9839,0.00017857,2.555e-05,0.0,0 STARLINK-3294,1 50829U 22001AC  23109.36222502  .00002555  00000-0  17857-3 0  9994,2 50829  53.2197 226.6667 0001343 105.1301 254.9839 15.08840900 71081,6917.878,95.437,540.672,538.814,0.0
50829.0,STARLINK-3294,PAYLOAD,2023-04-19 15:03:08,15.08846217,0.0001148,53.218,225.4764,91.6322,268.4802,0.00019861,2.875e-05,0.0,0 STARLINK-3294,1 50829U 22001AC  23109.62718255  .00002875  00000-0  19861-3 0  9990,2 50829  53.2180 225.4764 0001148  91.6322 268.4802 15.08846217 71125,6917.861,95.437,540.521,538.932,0.0
50829.0,STARLINK-3294,PAYLOAD,2023-04-20 08:32:23,15.0883936,9.29e-05,53.2163,222.2038,91.686,268.4238,2.4011e-05,9.4e-07,0.0,0 STARLINK-3294,1 50829U 22001AC  23110.35582518  .00000094  00000-0  24011-4 0  9998,2 50829  53.2163 222.2038 0000929  91.6860 268.4238 15.08839360 71234,6917.882,95.438,540.39,539.105,0.0
50829.0,STARLINK-3294,PAYLOAD,2023-04-20 13:18:32,15.0884234,0.0001011,53.2168,221.3119,92.696,267.4148,9.7364e-05,1.262e-05,0.0,0 STARLINK-3294,1 50829U 22001AC  23110.55454441  .00001262  00000-0  97364-4 0  9992,2 50829  53.2168 221.3119 0001011  92.6960 267.4148 15.08842340 72539,6917.873,95.437,540.438,539.039,0.0
50829.0,STARLINK-3294,PAYLOAD,2023-04-20 14:53:55,15.08844687,0.0001043,53.2169,221.0146,90.6773,269.4339,0.00015052,2.109e-05,0.0,0 STARLINK-3294,1 50829U 22001AC  23110.62078371  .00002109  00000-0  15052-3 0  9998,2 50829  53.2169 221.0146 0001043  90.6773 269.4339 15.08844687 71272,6917.866,95.437,540.453,539.01,0.0
50829.0,STARLINK-3294,PAYLOAD,2023-04-21 13:09:20,15.08838288,0.0001107,53.2167,216.8524,87.1731,272.9388,0.00011337,1.517e-05,0.0,0 STARLINK-3294,1 50829U 22001AC  23111.54814816  .00001517  00000-0  11337-3 0  9996,2 50829  53.2167 216.8524 0001107  87.1731 272.9388 15.08838288 72687,6917.886,95.438,540.516,538.985,0.0
50829.0,STARLINK-3294,PAYLOAD,2023-04-21 19:30:52,15.088388,9.86e-05,53.2149,215.6622,92.1217,267.9888,9.7424e-05,1.263e-05,0.0,0 STARLINK-3294,1 50829U 22001AC  23111.81310839  .00001263  00000-0  97424-4 0  9992,2 50829  53.2149 215.6622 0000986  92.1217 267.9888 15.08838800 71455,6917.884,95.438,540.431,539.067,0.0
50829.0,STARLINK-3294,PAYLOAD,2023-04-22 00:17:01,15.088406,0.0001017,53.2155,214.7709,77.2238,282.8868,0.00014395,2.004e-05,0.0,0 STARLINK-3294,1 50829U 22001AC  23112.01182744  .00002004  00000-0  14395-3 0  9996,2 50829  53.2155 214.7709 0001017  77.2238 282.8868 15.08840600 71489,6917.879,95.438,540.447,539.04,0.0
50829.0,STARLINK-3294,PAYLOAD,2023-04-22 17:46:15,15.08858845,5.44e-05,53.2166,211.4998,80.8774,279.2279,0.0004422,6.761e-05,0.0,0 STARLINK-3294,1 50829U 22001AC  23112.74045838  .00006761  00000-0  44220-3 0  9992,2 50829  53.2166 211.4998 0000544  80.8774 279.2279 15.08858845 72863,6917.823,95.436,540.064,539.311,0.0
50829.0,STARLINK-3294,PAYLOAD,2023-04-23 00:07:49,15.08832097,7.53e-05,53.2144,210.3108,81.595,278.5127,-7.3989e-05,-1.465e-05,0.0,0 STARLINK-3294,1 50829U 22001AC  23113.00542913 -.00001465  00000-0 -73989-4 0  9991,2 50829  53.2144 210.3108 0000753  81.5950 278.5127 15.08832097 72906,6917.905,95.438,540.29,539.249,0.0
50829.0,STARLINK-3294,PAYLOAD,2023-04-23 17:37:03,15.08838858,0.0001126,53.2158,207.0423,65.5214,294.5896,4.0725e-05,3.6e-06,0.0,0 STARLINK-3294,1 50829U 22001AC  23113.73407255  .00000360  00000-0  40725-4 0  9993,2 50829  53.2158 207.0423 0001126  65.5214 294.5896 15.08838858 71747,6917.884,95.438,540.528,538.97,0.0
50829.0,STARLINK-3294,PAYLOAD,2023-04-24 06:20:07,15.08872761,0.0001215,53.2153,204.6597,91.5424,268.5707,0.00059951,9.275e-05,0.0,0 STARLINK-3294,1 50829U 22001AC  23114.26397851  .00009275  00000-0  59951-3 0  9996,2 50829  53.2153 204.6597 0001215  91.5424 268.5707 15.08872761 73091,6917.78,95.435,540.486,538.805,0.0
50829.0,STARLINK-3294,PAYLOAD,2023-04-24 17:27:48,15.08902276,8.48e-05,53.2166,202.5784,69.6335,290.4748,0.0014054,0.00022188,0.0,0 STARLINK-3294,1 50829U 22001AC  23114.72764186  .00022188  00000-0  14054-2 0  9998,2 50829  53.2166 202.5784 0000848  69.6335 290.4748 15.08902276 73160,6917.69,95.434,540.142,538.968,0.0
50829.0,STARLINK-3294,PAYLOAD,2023-04-25 10:57:05,15.0880944,0.000163,53.216,199.3058,122.4448,237.6702,-0.00094548,-0.00015291,0.0,0 STARLINK-3294,1 50829U 22001AC  23115.45630823 -.00015291  00000-0 -94548-3 0  9995,2 50829  53.2160 199.3058 0001630 122.4448 237.6702 15.08809440 73278,6917.974,95.439,540.966,538.711,0.0
50829.0,STARLINK-3294,PAYLOAD,2023-04-26 12:23:17,15.08827395,0.0001185,53.2151,194.5509,120.6078,239.5031,0.0010332,0.00016188,0.0,0 STARLINK-3294,1 50829U 22001AC  23116.51617254  .00016188  00000-0  10332-2 0  9998,2 50829  53.2151 194.5509 0001185 120.6078 239.5031 15.08827395 72162,6917.919,95.438,540.604,538.964,0.0
50829.0,STARLINK-3294,PAYLOAD,2023-04-26 21:55:36,15.08843696,0.0001124,53.2149,192.7667,120.0425,240.0679,0.0011712,0.00018403,0.0,0 STARLINK-3294,1 50829U 22001AC  23116.91361309  .00018403  00000-0  11712-2 0  9994,2 50829  53.2149 192.7667 0001124 120.0425 240.0679 15.08843696 72221,6917.869,95.437,540.512,538.957,0.0
